ONEWEB-0168             
1 48068U 21025AC  24095.54462763 -.00000120  00000+0 -36474-3 0  9994
2 48068  87.8902 120.1823 0002055  94.4905 265.6459 13.13467769148065
ONEWEB-0173             
1 48069U 21025AD  24095.61287547  .00000043  00000+0  82559-4 0  9996
2 48069  87.8903 120.1791 0002057 107.8402 252.2951 13.13470605148314
ONEWEB-0171             
1 48070U 21025AE  24095.57320195 -.00000029  00000+0 -11524-3 0  9999
2 48070  87.8901 120.2220 0001899  97.5810 262.5535 13.13471213148120
ONEWEB-0172             
1 48071U 21025AF  24095.55255876 -.00000221  00000+0 -63916-3 0  9997
2 48071  87.8904 120.1929 0001896  99.4989 260.6354 13.13471200149017
ONEWEB-0174             
1 48072U 21025AG  24095.61128679  .00000054  00000+0  11385-3 0  9990
2 48072  87.8905 120.1955 0002136  91.6377 268.4997 13.13468575148346
ONEWEB-0175             
1 48073U 21025AH  24095.56367081 -.00000204  00000+0 -59250-3 0  9999
2 48073  87.8897 120.1978 0001580  97.6423 262.4886 13.13470932147993
ONEWEB-0177             
1 48074U 21025AJ  24095.57637406  .00000048  00000+0  95829-4 0  9999
2 48074  87.8898 120.2019 0002340 102.6011 257.5379 13.13471061148185
ONEWEB-0178             
1 48075U 21025AK  24095.59397208  .00000342  00000+0  90204-3 0  9993
2 48075  87.8905 120.2113 0002132  99.5106 260.6264 13.13470773148231
